[{"OBJECT_NAME":"STARLINK-35195","OBJECT_ID":"2025-207Q","EPOCH":"2026-03-09T17:40:36.529824","MEAN_MOTION":15.05660827,"ECCENTRICITY":3.381e-5,"INCLINATION":97.6041,"RA_OF_ASC_NODE":138.7907,"ARG_OF_PERICENTER":111.9911,"MEAN_ANOMALY":248.1352,"EPHEMERIS_TYPE":0,"CLASSIFICATION_TYPE":"U","NORAD_CAT_ID":65606,"ELEMENT_SET_NO":999,"REV_AT_EPOCH":2827,"BSTAR":0.00040656138,"MEAN_MOTION_DOT":5.812e-5,"MEAN_MOTION_DDOT":0},{"OBJECT_NAME":"COSMOS 2251 DEB","OBJECT_ID":"1993-036AL","EPOCH":"2026-03-09T15:08:47.217120","MEAN_MOTION":15.1034549,"ECCENTRICITY":0.0030621,"INCLINATION":74.0303,"RA_OF_ASC_NODE":257.926,"ARG_OF_PERICENTER":317.2462,"MEAN_ANOMALY":110.0671,"EPHEMERIS_TYPE":0,"CLASSIFICATION_TYPE":"U","NORAD_CAT_ID":33795,"ELEMENT_SET_NO":999,"REV_AT_EPOCH":91331,"BSTAR":0.001367,"MEAN_MOTION_DOT":0.00022707,"MEAN_MOTION_DDOT":0}]
